SAKHACUBE-CHOLBON (RS-*)
1 67290U 25313AU  26015.43663128  .00006529  00000+0  29325-3 0  9990
2 67290  97.4116  92.6248 0010262 166.2023 193.9495 15.21450224  2723
QMR-KWT-2               
1 67291U 25313AV  26015.43617389  .00007330  00000+0  32826-3 0  9990
2 67291  97.4116  92.6254 0010166 166.2340 193.9175 15.21510974  2720
SITRO-AIS-64            
1 67292U 25313AW  26015.43554567  .00006596  00000+0  29543-3 0  9994
2 67292  97.4119  92.6276 0009946 165.8642 194.2874 15.21545309  2722
SCORPION                
1 67293U 25313AX  26015.50256231  .00002902  00000+0  13252-3 0  9997
2 67293  97.4115  92.6872 0011872 157.0273 203.1496 15.21331091  2737
SITRO-AIS-63            
1 67294U 25313AY  26015.43504772  .00006662  00000+0  29799-3 0  9996
2 67294  97.4122  92.6286 0009829 166.0012 194.1498 15.21588004  2723
ZORKIY-2M-5             
1 67295U 25313AZ  26015.43509217  .00005645  00000+0  25313-3 0  9994
2 67295  97.4114  92.6248 0011394 157.1455 203.0291 15.21554692  2722
SITRO-AIS-62            
1 67296U 25313BA  26015.43447045  .00006766  00000+0  30219-3 0  9991
2 67296  97.4126  92.6305 0009618 166.4864 193.6631 15.21636293  2723
SITRO-AIS-61            
1 67297U 25313BB  26015.43379721  .00006853  00000+0  30547-3 0  9998
2 67297  97.4129  92.6313 0009303 168.4227 191.7225 15.21698986  2727
TIANHUI 7               
1 67300U 25314A   26008.13994258  .00002013  00000+0  82629-4 0  9994
2 67300  97.4205  85.2818 0001392 102.4970 257.6424 15.25383404  1382
CZ-4B R/B               
1 67301U 25314B   26015.23952577  .00082318  41543-5  40236-3 0  9998
2 67301  97.3742  93.2598 0138678 318.3842  40.6929 15.69450316  2483
SHIJIAN-29A (SJ-29A)    
1 67302U 25315A   26015.52278919 -.00000051  00000+0  00000+0 0  9996
2 67302   3.0113  99.1681 0001542 305.5664 331.4688  1.00271524    86
CZ-7A R/B               
1 67303U 25315B   26014.62737328  .00106760  10290-5  27421-2 0  9991
2 67303  19.5623  94.4795 7196978 190.1136 138.0287  2.43320951   360
