CCSDS_OMM_VERS = 2.0
CREATION_DATE  = 
ORIGINATOR     = 

OBJECT_NAME    = SAKHACUBE-CHOLBON (RS-18S)
OBJECT_ID      = 2025-313AU
CENTER_NAME    = EARTH
REF_FRAME      = TEME
TIME_SYSTEM    = UTC
MEAN_ELEMENT_THEORY = SGP/SGP4

EPOCH          = 2026-01-15T10:28:44.942592
MEAN_MOTION    = 15.21450224
ECCENTRICITY   = .0010262
INCLINATION    = 97.4116
RA_OF_ASC_NODE = 92.6248
ARG_OF_PERICENTER = 166.2023
MEAN_ANOMALY   = 193.9495

EPHEMERIS_TYPE = 0
CLASSIFICATION_TYPE = U
NORAD_CAT_ID   = 67290
ELEMENT_SET_NO = 999
REV_AT_EPOCH   = 272
BSTAR          = .29325E-3
MEAN_MOTION_DOT = .6529E-4
MEAN_MOTION_DDOT = 0

CCSDS_OMM_VERS = 2.0
CREATION_DATE  = 
ORIGINATOR     = 

OBJECT_NAME    = QMR-KWT-2
OBJECT_ID      = 2025-313AV
CENTER_NAME    = EARTH
REF_FRAME      = TEME
TIME_SYSTEM    = UTC
MEAN_ELEMENT_THEORY = SGP/SGP4

EPOCH          = 2026-01-15T10:28:05.424096
MEAN_MOTION    = 15.21510974
ECCENTRICITY   = .0010166
INCLINATION    = 97.4116
RA_OF_ASC_NODE = 92.6254
ARG_OF_PERICENTER = 166.2340
MEAN_ANOMALY   = 193.9175

EPHEMERIS_TYPE = 0
CLASSIFICATION_TYPE = U
NORAD_CAT_ID   = 67291
ELEMENT_SET_NO = 999
REV_AT_EPOCH   = 272
BSTAR          = .32826E-3
MEAN_MOTION_DOT = .733E-4
MEAN_MOTION_DDOT = 0

CCSDS_OMM_VERS = 2.0
CREATION_DATE  = 
ORIGINATOR     = 

OBJECT_NAME    = SITRO-AIS-64
OBJECT_ID      = 2025-313AW
CENTER_NAME    = EARTH
REF_FRAME      = TEME
TIME_SYSTEM    = UTC
MEAN_ELEMENT_THEORY = SGP/SGP4

EPOCH          = 2026-01-15T10:27:11.145888
MEAN_MOTION    = 15.21545309
ECCENTRICITY   = .0009946
INCLINATION    = 97.4119
RA_OF_ASC_NODE = 92.6276
ARG_OF_PERICENTER = 165.8642
MEAN_ANOMALY   = 194.2874

EPHEMERIS_TYPE = 0
CLASSIFICATION_TYPE = U
NORAD_CAT_ID   = 67292
ELEMENT_SET_NO = 999
REV_AT_EPOCH   = 272
BSTAR          = .29543E-3
MEAN_MOTION_DOT = .6596E-4
MEAN_MOTION_DDOT = 0

CCSDS_OMM_VERS = 2.0
CREATION_DATE  = 
ORIGINATOR     = 

OBJECT_NAME    = SCORPION
OBJECT_ID      = 2025-313AX
CENTER_NAME    = EARTH
REF_FRAME      = TEME
TIME_SYSTEM    = UTC
MEAN_ELEMENT_THEORY = SGP/SGP4

EPOCH          = 2026-01-15T12:03:41.383584
MEAN_MOTION    = 15.21331091
ECCENTRICITY   = .0011872
INCLINATION    = 97.4115
RA_OF_ASC_NODE = 92.6872
ARG_OF_PERICENTER = 157.0273
MEAN_ANOMALY   = 203.1496

EPHEMERIS_TYPE = 0
CLASSIFICATION_TYPE = U
NORAD_CAT_ID   = 67293
ELEMENT_SET_NO = 999
REV_AT_EPOCH   = 273
BSTAR          = .13252E-3
MEAN_MOTION_DOT = .2902E-4
MEAN_MOTION_DDOT = 0

CCSDS_OMM_VERS = 2.0
CREATION_DATE  = 
ORIGINATOR     = 

OBJECT_NAME    = SITRO-AIS-63
OBJECT_ID      = 2025-313AY
CENTER_NAME    = EARTH
REF_FRAME      = TEME
TIME_SYSTEM    = UTC
MEAN_ELEMENT_THEORY = SGP/SGP4

EPOCH          = 2026-01-15T10:26:28.123008
MEAN_MOTION    = 15.21588004
ECCENTRICITY   = .0009829
INCLINATION    = 97.4122
RA_OF_ASC_NODE = 92.6286
ARG_OF_PERICENTER = 166.0012
MEAN_ANOMALY   = 194.1498

EPHEMERIS_TYPE = 0
CLASSIFICATION_TYPE = U
NORAD_CAT_ID   = 67294
ELEMENT_SET_NO = 999
REV_AT_EPOCH   = 272
BSTAR          = .29799E-3
MEAN_MOTION_DOT = .6662E-4
MEAN_MOTION_DDOT = 0

CCSDS_OMM_VERS = 2.0
CREATION_DATE  = 
ORIGINATOR     = 

OBJECT_NAME    = ZORKIY-2M-5
OBJECT_ID      = 2025-313AZ
CENTER_NAME    = EARTH
REF_FRAME      = TEME
TIME_SYSTEM    = UTC
MEAN_ELEMENT_THEORY = SGP/SGP4

EPOCH          = 2026-01-15T10:26:31.963488
MEAN_MOTION    = 15.21554692
ECCENTRICITY   = .0011394
INCLINATION    = 97.4114
RA_OF_ASC_NODE = 92.6248
ARG_OF_PERICENTER = 157.1455
MEAN_ANOMALY   = 203.0291

EPHEMERIS_TYPE = 0
CLASSIFICATION_TYPE = U
NORAD_CAT_ID   = 67295
ELEMENT_SET_NO = 999
REV_AT_EPOCH   = 272
BSTAR          = .25313E-3
MEAN_MOTION_DOT = .5645E-4
MEAN_MOTION_DDOT = 0

CCSDS_OMM_VERS = 2.0
CREATION_DATE  = 
ORIGINATOR     = 

OBJECT_NAME    = SITRO-AIS-62
OBJECT_ID      = 2025-313BA
CENTER_NAME    = EARTH
REF_FRAME      = TEME
TIME_SYSTEM    = UTC
MEAN_ELEMENT_THEORY = SGP/SGP4

EPOCH          = 2026-01-15T10:25:38.246880
MEAN_MOTION    = 15.21636293
ECCENTRICITY   = .0009618
INCLINATION    = 97.4126
RA_OF_ASC_NODE = 92.6305
ARG_OF_PERICENTER = 166.4864
MEAN_ANOMALY   = 193.6631

EPHEMERIS_TYPE = 0
CLASSIFICATION_TYPE = U
NORAD_CAT_ID   = 67296
ELEMENT_SET_NO = 999
REV_AT_EPOCH   = 272
BSTAR          = .30219E-3
MEAN_MOTION_DOT = .6766E-4
MEAN_MOTION_DDOT = 0

CCSDS_OMM_VERS = 2.0
CREATION_DATE  = 
ORIGINATOR     = 

OBJECT_NAME    = SITRO-AIS-61
OBJECT_ID      = 2025-313BB
CENTER_NAME    = EARTH
REF_FRAME      = TEME
TIME_SYSTEM    = UTC
MEAN_ELEMENT_THEORY = SGP/SGP4

EPOCH          = 2026-01-15T10:24:40.078944
MEAN_MOTION    = 15.21698986
ECCENTRICITY   = .0009303
INCLINATION    = 97.4129
RA_OF_ASC_NODE = 92.6313
ARG_OF_PERICENTER = 168.4227
MEAN_ANOMALY   = 191.7225

EPHEMERIS_TYPE = 0
CLASSIFICATION_TYPE = U
NORAD_CAT_ID   = 67297
ELEMENT_SET_NO = 999
REV_AT_EPOCH   = 272
BSTAR          = .30547E-3
MEAN_MOTION_DOT = .6853E-4
MEAN_MOTION_DDOT = 0

CCSDS_OMM_VERS = 2.0
CREATION_DATE  = 
ORIGINATOR     = 

OBJECT_NAME    = TIANHUI 7
OBJECT_ID      = 2025-314A
CENTER_NAME    = EARTH
REF_FRAME      = TEME
TIME_SYSTEM    = UTC
MEAN_ELEMENT_THEORY = SGP/SGP4

EPOCH          = 2026-01-08T03:21:31.038912
MEAN_MOTION    = 15.25383404
ECCENTRICITY   = .00013928
INCLINATION    = 97.4205
RA_OF_ASC_NODE = 85.2818
ARG_OF_PERICENTER = 102.4970
MEAN_ANOMALY   = 257.6424

EPHEMERIS_TYPE = 0
CLASSIFICATION_TYPE = U
NORAD_CAT_ID   = 67300
ELEMENT_SET_NO = 999
REV_AT_EPOCH   = 138
BSTAR          = .82629326E-4
MEAN_MOTION_DOT = .2013E-4
MEAN_MOTION_DDOT = 0

CCSDS_OMM_VERS = 2.0
CREATION_DATE  = 
ORIGINATOR     = 

OBJECT_NAME    = CZ-4B R/B
OBJECT_ID      = 2025-314B
CENTER_NAME    = EARTH
REF_FRAME      = TEME
TIME_SYSTEM    = UTC
MEAN_ELEMENT_THEORY = SGP/SGP4

EPOCH          = 2026-01-15T05:44:55.026528
MEAN_MOTION    = 15.69450316
ECCENTRICITY   = .0138678
INCLINATION    = 97.3742
RA_OF_ASC_NODE = 93.2598
ARG_OF_PERICENTER = 318.3842
MEAN_ANOMALY   = 40.6929

EPHEMERIS_TYPE = 0
CLASSIFICATION_TYPE = U
NORAD_CAT_ID   = 67301
ELEMENT_SET_NO = 999
REV_AT_EPOCH   = 248
BSTAR          = .40236E-3
MEAN_MOTION_DOT = .82318E-3
MEAN_MOTION_DDOT = .41543E-5

CCSDS_OMM_VERS = 2.0
CREATION_DATE  = 
ORIGINATOR     = 

OBJECT_NAME    = SHIJIAN-29A (SJ-29A)
OBJECT_ID      = 2025-315A
CENTER_NAME    = EARTH
REF_FRAME      = TEME
TIME_SYSTEM    = UTC
MEAN_ELEMENT_THEORY = SGP/SGP4

EPOCH          = 2026-01-15T12:32:48.986016
MEAN_MOTION    = 1.00271524
ECCENTRICITY   = .0001542
INCLINATION    = 3.0113
RA_OF_ASC_NODE = 99.1681
ARG_OF_PERICENTER = 305.5664
MEAN_ANOMALY   = 331.4688

EPHEMERIS_TYPE = 0
CLASSIFICATION_TYPE = U
NORAD_CAT_ID   = 67302
ELEMENT_SET_NO = 999
REV_AT_EPOCH   = 8
BSTAR          = 0
MEAN_MOTION_DOT = -.51E-6
MEAN_MOTION_DDOT = 0

CCSDS_OMM_VERS = 2.0
CREATION_DATE  = 
ORIGINATOR     = 

OBJECT_NAME    = CZ-7A R/B
OBJECT_ID      = 2025-315B
CENTER_NAME    = EARTH
REF_FRAME      = TEME
TIME_SYSTEM    = UTC
MEAN_ELEMENT_THEORY = SGP/SGP4

EPOCH          = 2026-01-14T15:03:25.051392
MEAN_MOTION    = 2.43320951
ECCENTRICITY   = .71969787
INCLINATION    = 19.5623
RA_OF_ASC_NODE = 94.4795
ARG_OF_PERICENTER = 190.1136
MEAN_ANOMALY   = 138.0287

EPHEMERIS_TYPE = 0
CLASSIFICATION_TYPE = U
NORAD_CAT_ID   = 67303
ELEMENT_SET_NO = 999
REV_AT_EPOCH   = 36
BSTAR          = .27421012E-2
MEAN_MOTION_DOT = .10676E-2
MEAN_MOTION_DDOT = .1028982E-5

